{"type": "FeatureCollection", "features": [ {"type": "Feature", "properties": {"norad_id": 43107, "name": "BEIDOU-3 M7 (C27)", "group": "gnss", "lat": 29.608024016368407, "lon": 104.99793140505616, "alt_km": 21522.004378116224, "timestamp": "2025-12-09T11:33:55.042054+00:00", "meta": {"OBJECT_NAME": "BEIDOU-3 M7 (C27)", "OBJECT_ID": "2018-003A", "EPOCH": "2025-12-08T17:34:34.070592", "MEAN_MOTION": 1.86232165, "ECCENTRICITY": 0.0002554, "INCLINATION": 54.5005, "RA_OF_ASC_NODE": 308.9546, "ARG_OF_PERICENTER": 71.3868, "MEAN_ANOMALY": 288.6293, "EPHEMERIS_TYPE": 0, "CLASSIFICATION_TYPE": "U", "NORAD_CAT_ID": 43107, "ELEMENT_SET_NO": 999, "REV_AT_EPOCH": 5380, "BSTAR": 0, "MEAN_MOTION_DOT": -7.5e-07, "MEAN_MOTION_DDOT": 0}, "tle": {"line1": "1 43107U 18003A   25342.73233878 -.00000075  00000+0  00000+0 0  9995", "line2": "2 43107  54.5005 308.9546 0002554  71.3868 288.6293  1.86232165 53808"}}, "geometry": {"type": "Point", "coordinates": [104.99793140505616, 29.608024016368407]}}, {"type": "Feature", "properties": {"norad_id": 43108, "name": "BEIDOU-3 M8 (C28)", "group": "gnss", "lat": 0.4570195304737061, "lon": 128.56586953612694, "alt_km": 21529.686726587144, "timestamp": "2025-12-09T11:33:55.042072+00:00", "meta": {"OBJECT_NAME": "BEIDOU-3 M8 (C28)", "OBJECT_ID": "2018-003B", "EPOCH": "2025-12-08T03:21:57.743424", "MEAN_MOTION": 1.86230794, "ECCENTRICITY": 0.00047249, "INCLINATION": 54.4937, "RA_OF_ASC_NODE": 308.9576, "ARG_OF_PERICENTER": 275.4662, "MEAN_ANOMALY": 84.4669, "EPHEMERIS_TYPE": 0, "CLASSIFICATION_TYPE": "U", "NORAD_CAT_ID": 43108, "ELEMENT_SET_NO": 999, "REV_AT_EPOCH": 5380, "BSTAR": 0, "MEAN_MOTION_DOT": -7.3e-07, "MEAN_MOTION_DDOT": 0}, "tle": {"line1": "1 43108U 18003B   25342.14025166 -.00000073  00000+0  00000+0 0  9998", "line2": "2 43108  54.4937 308.9576 0004724 275.4662  84.4669  1.86230794 53800"}}, "geometry": {"type": "Point", "coordinates": [128.56586953612694, 0.4570195304737061]}}, {"type": "Feature", "properties": {"norad_id": 43207, "name": "BEIDOU-3 M4 (C22)", "group": "gnss", "lat": -48.10452284539387, "lon": -63.042805812805135, "alt_km": 21540.84832370346, "timestamp": "2025-12-09T11:33:55.042098+00:00", "meta": {"OBJECT_NAME": "BEIDOU-3 M4 (C22)", "OBJECT_ID": "2018-018A", "EPOCH": "2025-12-06T10:25:28.940736", "MEAN_MOTION": 1.86230708, "ECCENTRICITY": 0.00041784, "INCLINATION": 56.4806, "RA_OF_ASC_NODE": 69.5126, "ARG_OF_PERICENTER": 11.9666, "MEAN_ANOMALY": 348.0575, "EPHEMERIS_TYPE": 0, "CLASSIFICATION_TYPE": "U", "NORAD_CAT_ID": 43207, "ELEMENT_SET_NO": 999, "REV_AT_EPOCH": 5315, "BSTAR": 0, "MEAN_MOTION_DOT": -4.5e-07, "MEAN_MOTION_DDOT": 0}, "tle": {"line1": "1 43207U 18018A   25340.43436274 -.00000045  00000+0  00000+0 0  9999", "line2": "2 43207  56.4806  69.5126 0004178  11.9666 348.0575  1.86230708 53156"}}, "geometry": {"type": "Point", "coordinates": [-63.042805812805135, -48.10452284539387]}}, {"type": "Feature", "properties": {"norad_id": 43208, "name": "BEIDOU-3 M3 (C21)", "group": "gnss", "lat": -15.367224653401514, "lon": -100.09502920654474, "alt_km": 21538.830907364696, "timestamp": "2025-12-09T11:33:55.042117+00:00", "meta": {"OBJECT_NAME": "BEIDOU-3 M3 (C21)", "OBJECT_ID": "2018-018B", "EPOCH": "2025-12-08T02:40:56.254080", "MEAN_MOTION": 1.86230991, "ECCENTRICITY": 0.0006453, "INCLINATION": 56.4817, "RA_OF_ASC_NODE": 69.4614, "ARG_OF_PERICENTER": 316.7872, "MEAN_ANOMALY": 43.1825, "EPHEMERIS_TYPE": 0, "CLASSIFICATION_TYPE": "U", "NORAD_CAT_ID": 43208, "ELEMENT_SET_NO": 999, "REV_AT_EPOCH": 5318, "BSTAR": 0, "MEAN_MOTION_DOT": -4.4e-07, "MEAN_MOTION_DDOT": 0}, "tle": {"line1": "1 43208U 18018B   25342.11176220 -.00000044  00000+0  00000+0 0  9998", "line2": "2 43208  56.4817  69.4614 0006453 316.7872  43.1825  1.86230991 53181"}}, "geometry": {"type": "Point", "coordinates": [-100.09502920654474, -15.367224653401514]}}, {"type": "Feature", "properties": {"norad_id": 43245, "name": "BEIDOU-3 M9 (C29)", "group": "gnss", "lat": 40.91938632593157, "lon": -15.03205223697189, "alt_km": 21526.929493295353, "timestamp": "2025-12-09T11:33:55.042137+00:00", "meta": {"OBJECT_NAME": "BEIDOU-3 M9 (C29)", "OBJECT_ID": "2018-029A", "EPOCH": "2025-12-08T20:45:22.665024", "MEAN_MOTION": 1.86227881, "ECCENTRICITY": 0.0001669, "INCLINATION": 54.3693, "RA_OF_ASC_NODE": 306.6022, "ARG_OF_PERICENTER": 274.1611, "MEAN_ANOMALY": 85.8087, "EPHEMERIS_TYPE": 0, "CLASSIFICATION_TYPE": "U", "NORAD_CAT_ID": 43245, "ELEMENT_SET_NO": 999, "REV_AT_EPOCH": 5235, "BSTAR": 0, "MEAN_MOTION_DOT": -7.4e-07, "MEAN_MOTION_DDOT": 0}, "tle": {"line1": "1 43245U 18029A   25342.86484566 -.00000074  00000+0  00000+0 0  9991", "line2": "2 43245  54.3693 306.6022 0001669 274.1611  85.8087  1.86227881 52357"}}, "geometry": {"type": "Point", "coordinates": [-15.03205223697189, 40.91938632593157]}}, {"type": "Feature", "properties": {"norad_id": 43246, "name": "BEIDOU-3 M10 (C30)", "group": "gnss", "lat": 53.750697712301005, "lon": 48.7549260444374, "alt_km": 21523.6000503518, "timestamp": "2025-12-09T11:33:55.042154+00:00", "meta": {"OBJECT_NAME": "BEIDOU-3 M10 (C30)", "OBJECT_ID": "2018-029B", "EPOCH": "2025-12-08T19:12:10.130400", "MEAN_MOTION": 1.86228761, "ECCENTRICITY": 0.0003941, "INCLINATION": 54.3671, "RA_OF_ASC_NODE": 306.6327, "ARG_OF_PERICENTER": 358.8178, "MEAN_ANOMALY": 1.1699, "EPHEMERIS_TYPE": 0, "CLASSIFICATION_TYPE": "U", "NORAD_CAT_ID": 43246, "ELEMENT_SET_NO": 999, "REV_AT_EPOCH": 5233, "BSTAR": 0, "MEAN_MOTION_DOT": -7.4e-07, "MEAN_MOTION_DDOT": 0}, "tle": {"line1": "1 43246U 18029B   25342.80011725 -.00000074  00000+0  00000+0 0  9999", "line2": "2 43246  54.3671 306.6327 0003941 358.8178   1.1699  1.86228761 52331"}}, "geometry": {"type": "Point", "coordinates": [48.7549260444374, 53.750697712301005]}}, {"type": "Feature", "properties": {"norad_id": 43286, "name": "IRNSS-1I", "group": "gnss", "lat": -21.950426890081232, "lon": -56.6404806955164, "alt_km": 35728.26157126255, "timestamp": "2025-12-09T11:33:55.042172+00:00", "meta": {"OBJECT_NAME": "IRNSS-1I", "OBJECT_ID": "2018-035A", "EPOCH": "2025-12-08T20:42:35.011008", "MEAN_MOTION": 1.00269532, "ECCENTRICITY": 0.0021883, "INCLINATION": 29.1411, "RA_OF_ASC_NODE": 77.1575, "ARG_OF_PERICENTER": 181.4229, "MEAN_ANOMALY": 184.9765, "EPHEMERIS_TYPE": 0, "CLASSIFICATION_TYPE": "U", "NORAD_CAT_ID": 43286, "ELEMENT_SET_NO": 999, "REV_AT_EPOCH": 2817, "BSTAR": 0, "MEAN_MOTION_DOT": 7.6e-07, "MEAN_MOTION_DDOT": 0}, "tle": {"line1": "1 43286U 18035A   25342.86290522  .00000076  00000+0  00000+0 0  9991", "line2": "2 43286  29.1411  77.1575 0021883 181.4229 184.9765  1.00269532 28170"}}, "geometry": {"type": "Point", "coordinates": [-56.6404806955164, -21.950426890081232]}}, {"type": "Feature", "properties": {"norad_id": 43508, "name": "COSMOS 2527 (756)", "group": "gnss", "lat": -14.781022630179477, "lon": 73.3372280666283, "alt_km": 19142.890098592674, "timestamp": "2025-12-09T11:33:55.042190+00:00", "meta": {"OBJECT_NAME": "COSMOS 2527 (756)", "OBJECT_ID": "2018-053A", "EPOCH": "2025-12-08T13:33:02.442240", "MEAN_MOTION": 2.1310206, "ECCENTRICITY": 0.0008756, "INCLINATION": 65.4701, "RA_OF_ASC_NODE": 80.2713, "ARG_OF_PERICENTER": 225.5022, "MEAN_ANOMALY": 134.4409, "EPHEMERIS_TYPE": 0, "CLASSIFICATION_TYPE": "U", "NORAD_CAT_ID": 43508, "ELEMENT_SET_NO": 999, "REV_AT_EPOCH": 5821, "BSTAR": 0, "MEAN_MOTION_DOT": -1e-07, "MEAN_MOTION_DDOT": 0}, "tle": {"line1": "1 43508U 18053A   25342.56461160 -.00000010  00000+0  00000+0 0  9992", "line2": "2 43508  65.4701  80.2713 0008756 225.5022 134.4409  2.13102060 58216"}}, "geometry": {"type": "Point", "coordinates": [73.3372280666283, -14.781022630179477]}}, {"type": "Feature", "properties": {"norad_id": 43539, "name": "BEIDOU-2 IGSO-7 (C16)", "group": "gnss", "lat": -14.473240039374609, "lon": -4.942354735376636, "alt_km": 35481.634489355325, "timestamp": "2025-12-09T11:33:55.042207+00:00", "meta": {"OBJECT_NAME": "BEIDOU-2 IGSO-7 (C16)", "OBJECT_ID": "2018-057A", "EPOCH": "2025-12-08T22:18:38.684160", "MEAN_MOTION": 1.00258196, "ECCENTRICITY": 0.0092592, "INCLINATION": 55.1737, "RA_OF_ASC_NODE": 164.7043, "ARG_OF_PERICENTER": 235.2335, "MEAN_ANOMALY": 123.7803, "EPHEMERIS_TYPE": 0, "CLASSIFICATION_TYPE": "U", "NORAD_CAT_ID": 43539, "ELEMENT_SET_NO": 999, "REV_AT_EPOCH": 2722, "BSTAR": 0, "MEAN_MOTION_DOT": -7e-07, "MEAN_MOTION_DDOT": 0}, "tle": {"line1": "1 43539U 18057A   25342.92961440 -.00000070  00000+0  00000+0 0  9992", "line2": "2 43539  55.1737 164.7043 0092592 235.2335 123.7803  1.00258196 27228"}}, "geometry": {"type": "Point", "coordinates": [-4.942354735376636, -14.473240039374609]}}, {"type": "Feature", "properties": {"norad_id": 43564, "name": "GSAT0221 (GALILEO 25)", "group": "gnss", "lat": -52.73625280475935, "lon": -70.95867645300208, "alt_km": 23208.03848590727, "timestamp": "2025-12-09T11:33:55.042229+00:00", "meta": {"OBJECT_NAME": "GSAT0221 (GALILEO 25)", "OBJECT_ID": "2018-060A", "EPOCH": "2025-12-09T00:16:12.119232", "MEAN_MOTION": 1.70475733, "ECCENTRICITY": 0.0006701, "INCLINATION": 57.2286, "RA_OF_ASC_NODE": 346.9182, "ARG_OF_PERICENTER": 282.1379, "MEAN_ANOMALY": 77.8037, "EPHEMERIS_TYPE": 0, "CLASSIFICATION_TYPE": "U", "NORAD_CAT_ID": 43564, "ELEMENT_SET_NO": 999, "REV_AT_EPOCH": 4592, "BSTAR": 0, "MEAN_MOTION_DOT": -8.7e-07, "MEAN_MOTION_DDOT": 0}, "tle": {"line1": "1 43564U 18060A   25343.01125138 -.00000087  00000+0  00000+0 0  9999", "line2": "2 43564  57.2286 346.9182 0006701 282.1379  77.8037  1.70475733 45922"}}, "geometry": {"type": "Point", "coordinates": [-70.95867645300208, -52.73625280475935]}}]}